#dP2025  1  4  0  0  0.00000000      96 __u+U IGS20 FIT  IAC
## 2347 518400.00000000   900.00000000 60679 0.0000000000000
+   53   G01G02G03G04G05G06G07G08G09G10G11G12G13G14G15G16G17
+        G18G19G20G21G22G23G24G25G26G27G28G29G30G31G32R01R02
+        R03R04R05R07R08R09R11R12R14R15R16R17R18R19R20R21R22
+        R24R26  0  0  0  0  0  0  0  0  0  0  0  0  0  0  0
+          0  0  0  0  0  0  0  0  0  0  0  0  0  0  0  0  0
++         7  6  5  6  6  7  6  6  7  6  6  6  6  6  6  6  6
++         5  6  6  6  6  7  7  6  6  6  5  6  6  5  6  8  6
++         7  8  7  7  6  7  7  5  7  7  7  7  6  7  8  7  5
++         6  5  0  0  0  0  0  0  0  0  0  0  0  0  0  0  0
++         0  0  0  0  0  0  0  0  0  0  0  0  0  0  0  0  0
%c M  cc GPS ccc cccc cccc cccc cccc ccccc ccccc ccccc ccccc
%c cc cc ccc ccc cccc cccc cccc cccc ccccc ccccc ccccc ccccc
%f  0.0000000  0.000000000  0.00000000000  0.000000000000000
%f  0.0000000  0.000000000  0.00000000000  0.000000000000000
%i    0    0    0    0      0      0      0      0         0
%i    0    0    0    0      0      0      0      0         0
/* INFORMATION & ANALYSIS CENTER (IAC)      ULTRA-RAPID DATA
/* S/V CLOCKS ARE ALIGNED TO GNSS TIME                      
/* G:C1WC2W R:C1PC2P E:C1XC5X C:C2IC6I J:C1CC2S             
/* PCV:IGS20_2317 OL/AL:FES2004  NONE     YN ORB:CoN CLK:CoN
*  2025 01 04 19  0  0.00000000
PG01  11834.957439 -19487.998912 -13615.704374     20.295366
PG02  11708.965497 -20983.595181 -10405.070067   -275.749595
PG03   1091.890861 -15165.786947 -21953.737768    639.501934
PG04   1095.900691 -25805.584178  -5813.084752    506.845464
PG05 -16508.948553   8045.793232  19038.033516   -198.060591
PG06 -20304.438762   1452.141885 -17056.813413    -95.012798
PG07  -4223.725987 -16025.777858  21212.060400    -13.900400
PG08   7616.943042 -19754.774112  15620.038801    453.963140
PG09  -6385.524639 -25599.344082   2633.942794    515.584493
PG10  24542.920663  10588.538763   1156.165923   -262.916054
PG11 -23159.166164  11031.231873  -6722.411843   -752.383418
PG12  -5469.951307  14379.525503 -21943.539761   -562.525037
PG13 -13171.897711  11894.349459  19447.307811    692.394959
PG14 -22880.941642 -13026.247792   4419.743561    573.710619
PG15  -4604.981987  21176.730340  14739.828553    247.764259
PG16  21108.973099  -1947.876871  15917.494672    -86.021212
PG17 -12689.015037 -16293.388202 -16174.405995    489.152993
PG18   5842.525595  14122.292430  21731.530383   -658.916238
PG19 -14996.505653  -6256.920216 -21223.766520    582.247338
PG20 -24477.218720   2338.415677   9956.438030    367.330338
PG21  16102.680798 -19792.502954  -4410.988740     99.974943
PG22 -24305.208477  -9610.753492  -3277.443228    -90.504011
PG23  16348.297139  15832.363117  13927.821681    397.357968
PG24 -12207.014732  21606.297452  -9357.440241   -467.289507
PG25   9210.447301  17402.561072 -18306.316821    497.223520
PG26  25864.680236   2965.541721   6030.477946    -35.178820
PG27  13371.571597  -8795.033022  20812.531634    -33.465579
PG28  19416.662258    140.947908 -18139.690902   -526.908094
PG29   4093.406223  25980.973308   3146.874667   -550.040496
PG30 -15188.773190  -7393.392915  20700.822323   -246.398774
PG31  23138.434310  -7519.270163 -11322.166514   -218.587309
PG32  14863.648916  11769.050661 -18457.764278   -547.489766
PR01   3469.796292 -13798.838211 -21170.151593    110.118915
PR02  -7450.180858 -22651.360507  -8911.608499    -38.710122
PR03 -14952.459319 -18674.909188   8807.360834    114.405056
PR04 -13618.639184  -4967.866803  21013.586439    271.218238
PR05  -5347.799167  11589.608039  22102.480342    143.251014
PR07  14972.723558  18618.675943  -8971.887118     98.254461
PR08  13677.050136   4619.221050 -20979.056956     -6.254510
PR09   2146.140281  11271.788700 -22763.198470    230.188864
PR11  25487.263130    523.093449   -570.026217      1.473320
PR12  16891.039085  -8078.180531  17346.830728     49.233043
PR14 -19082.831509  -7500.134863  15191.236854     27.553199
PR15 -25479.616387    203.758871  -1246.647306     72.503965
PR16 -17025.569244   7947.553902 -17267.839461     32.202125
PR17  -7013.044925  -8709.965747 -22915.191299    154.589013
PR18 -14913.209650   7097.924233 -19436.857259    180.285031
PR19 -16382.136585  17869.132973  -7927.567774   -304.365090
PR20  -6946.893518  20732.073112  13188.607604   -124.179086
PR21   6107.160223   9770.152807  22760.837776   -165.376452
PR22  15680.925985  -7677.171933  18622.129534    -54.246116
PR24   5362.762806 -21013.594177 -13417.510878    -86.835156
PR26  14265.438799   6360.528673 -20139.259317   -132.122931
*  2025 01 04 19 15  0.00000000
PG01  13114.417236 -20151.566799 -11277.801258     20.326516
PG02  12670.926487 -21594.258507  -7783.428372   -275.741240
PG03   3433.630292 -14329.897499 -22264.172792    639.509113
PG04   1449.950444 -25023.020740  -8529.877227    506.850890
PG05 -18498.267354   7317.676231  17457.214443   -198.061587
PG06 -18780.525265     74.138530 -18760.700143    -95.037459
PG07  -2422.813261 -17428.028675  20307.541024    -13.899466
PG08   8245.012340 -17914.433338  17442.049471    453.970490
PG09  -6160.847589 -25798.163378   -221.434869    515.598383
PG10  24240.428164  10640.565840   4023.980647   -262.930388
PG11 -22566.369166  10281.606522  -9388.300223   -752.382881
PG12  -7709.442389  13397.068529 -21888.048354   -562.526981
PG13 -13362.539656   9559.657976  20580.319804    692.396238
PG14 -22174.086636 -13049.958311   7125.121393    573.717216
PG15  -5460.172023  19472.564010  16625.002606    247.768366
PG16  22626.240184  -1068.367297  13868.512497    -86.012822
PG17 -12716.104216 -18110.225345 -14125.065371    489.137588
PG18   3917.464259  15628.671406  21103.143354   -658.915161
PG19 -15122.934510  -8593.022151 -20329.665211    582.251475
PG20 -25406.697104   1930.690594   7338.622886    367.330098
PG21  16621.718847 -19834.590626  -1516.584183     99.976410
PG22 -24417.905442  -9975.711086   -416.014728    -90.505849
PG23  14696.590391  15426.814149  16047.333878    397.364813
PG24 -13052.042709  22013.677033  -6741.325842   -467.286122
PG25   7178.617298  16852.389641 -19681.995586    497.223119
PG26  26321.678687   3402.397207   3328.358095    -35.192205
PG27  13914.465518  -6369.017126  21364.727303    -33.465116
PG28  17905.214508   1680.983286 -19562.213678   -526.917064
PG29   3873.533882  26206.998898    277.549727   -550.037719
PG30 -13420.827070  -8979.824925  21267.032523   -246.391180
PG31  22190.261578  -6495.116345 -13634.088856   -218.586543
PG32  15118.979067  13808.507141 -16801.028602   -547.483695
PR01   4861.716225 -11509.031368 -22237.161135    110.120282
PR02  -6937.260479 -21459.999300 -11798.267103    -38.708844
PR03 -15542.610519 -19363.243660   5746.002747    114.406087
PR04 -14943.474959  -7080.618273  19445.188775    271.219944
PR05  -6689.392051   9162.249397  22861.651162    143.251674
PR07  15583.047777  19331.641373  -5926.170591     98.254113
PR08  15022.849290   6736.535744 -19436.735519     -6.255110
PR09   -662.769186  11409.341110 -22793.097299    230.190725
PR11  25215.650623    386.796466  -3767.469555      1.471331
PR12  18885.866834  -8207.798929  15079.750783     49.233448
PR14 -17070.764776  -7472.671860  17432.503375     27.553333
PR15 -25435.126428    330.774970   1955.101264     72.504034
PR16 -19011.834389   8098.577975 -14975.912568     32.201797
PR17  -5669.594429 -11155.686827 -22219.880587    154.592829
PR18 -13561.802109   4989.963196 -21012.210312    180.286737
PR19 -15594.501678  16989.384309 -10893.139275   -304.365821
PR20  -7563.564548  22062.217471  10395.612928   -124.179300
PR21   4766.062187  12180.205074  21900.657726   -165.379265
PR22  14359.232808  -5675.726401  20331.211679    -54.247528
PR24   5985.455256 -22373.694152 -10682.220143    -86.836354
PR26  15569.627317   8356.312619 -18366.688245   -132.122500
EOF
